ORBCOMM FM37            
1 33064U 08031E   25095.09549730  .00004161  00000+0  57945-3 0  9990
2 33064  48.4403 331.0396 0005212  59.6378 100.2604 14.79411333903544
ORBCOMM FM40            
1 33065U 08031F   25095.04816288  .00005098  00000+0  66901-3 0  9993
2 33065  48.4418 316.4991 0006337  73.4810  80.3188 14.81551518903754
VESSELSAT 1             
1 37840U 11058C   25094.57015589  .00000468  00000+0  11070-3 0  9996
2 37840  19.9607 179.3386 0013789  96.5749 263.6225 14.11333444695892
ORBCOMM FM109           
1 40086U 14040A   25095.14075240  .00002249  00000+0  52103-3 0  9991
2 40086  47.0043   1.2453 0001958 349.1584  10.9259 14.58015817570525
ORBCOMM FM107           
1 40087U 14040B   25095.10406613  .00002133  00000+0  49543-3 0  9996
2 40087  47.0060   2.4081 0001770 302.2845  57.7869 14.58077178570510
ORBCOMM FM106           
1 40088U 14040C   25094.59050765  .00002591  00000+0  46615-3 0  9997
2 40088  47.0588 192.8139 0015937  85.2257 275.0453 14.69205206572657
ORBCOMM FM111           
1 40089U 14040D   25095.20634674  .00006280  00000+0  73231-3 0  9997
2 40089  47.0022  49.8071 0030342 204.2495 155.6975 14.85779784579374
ORBCOMM FM104           
1 40090U 14040E   25095.14977816  .00001723  00000+0  42083-3 0  9998
2 40090  47.0065  34.9245 0016769 233.5784 126.3555 14.56500606570074
